{
    "links": {
        "self": "http://www.neowsapp.com/rest/v1/neo/3713319?api_key=iIulBulltgU6a56xZRHN4H3l9WmuAYTsLGpBGhQ2"
    },
    "id": "3713319",
    "neo_reference_id": "3713319",
    "name": "(2015 FP)",
    "designation": "2015 FP",
    "nasa_jpl_url": "http://ssd.jpl.nasa.gov/sbdb.cgi?sstr=3713319",
    "absolute_magnitude_h": 25.2,
    "estimated_diameter": {
        "kilometers": {
            "estimated_diameter_min": 0.0242412481,
            "estimated_diameter_max": 0.0542050786
        },
        "meters": {
            "estimated_diameter_min": 24.2412481101,
            "estimated_diameter_max": 54.2050786336
        },
        "miles": {
            "estimated_diameter_min": 0.0150628086,
            "estimated_diameter_max": 0.0336814639
        },
        "feet": {
            "estimated_diameter_min": 79.5316564495,
            "estimated_diameter_max": 177.8381901842
        }
    },
    "is_potentially_hazardous_asteroid": false,
    "close_approach_data": [
        {
            "close_approach_date": "2013-06-04",
            "close_approach_date_full": "2013-Jun-04 09:21",
            "epoch_date_close_approach": 1370337660000,
            "relative_velocity": {
                "kilometers_per_second": "15.2545536914",
                "kilometers_per_hour": "54916.3932890242",
                "miles_per_hour": "34122.9111522828"
            },
            "miss_distance": {
                "astronomical": "0.3768247614",
                "lunar": "146.5848321846",
                "kilometers": "56372181.668698218",
                "miles": "35028049.4166946884"
            },
            "orbiting_body": "Earth"
        },
        {
            "close_approach_date": "2015-03-28",
            "close_approach_date_full": "2015-Mar-28 04:23",
            "epoch_date_close_approach": 1427516580000,
            "relative_velocity": {
                "kilometers_per_second": "7.4897827068",
                "kilometers_per_hour": "26963.2177446187",
                "miles_per_hour": "16753.8949369271"
            },
            "miss_distance": {
                "astronomical": "0.0247869804",
                "lunar": "9.6421353756",
                "kilometers": "3708079.471571748",
                "miles": "2304093.7413882024"
            },
            "orbiting_body": "Earth"
        },
        {
            "close_approach_date": "2017-02-20",
            "close_approach_date_full": "2017-Feb-20 05:45",
            "epoch_date_close_approach": 1487569500000,
            "relative_velocity": {
                "kilometers_per_second": "19.2034140482",
                "kilometers_per_hour": "69132.290573461",
                "miles_per_hour": "42956.1168843819"
            },
            "miss_distance": {
                "astronomical": "0.4577661083",
                "lunar": "178.0710161287",
                "kilometers": "68480834.759869321",
                "miles": "42552017.5565097898"
            },
            "orbiting_body": "Earth"
        },
        {
            "close_approach_date": "2069-02-28",
            "close_approach_date_full": "2069-Feb-28 00:09",
            "epoch_date_close_approach": 3129235740000,
            "relative_velocity": {
                "kilometers_per_second": "15.4639346148",
                "kilometers_per_hour": "55670.16461314",
                "miles_per_hour": "34591.2753397591"
            },
            "miss_distance": {
                "astronomical": "0.3263660603",
                "lunar": "126.9563974567",
                "kilometers": "48823667.461171561",
                "miles": "30337620.1862311018"
            },
            "orbiting_body": "Earth"
        }
    ],
    "orbital_data": {
        "orbit_id": "8",
        "orbit_determination_date": "2017-04-06 08:35:04",
        "first_observation_date": "2015-03-17",
        "last_observation_date": "2015-03-25",
        "data_arc_in_days": 8,
        "observations_used": 52,
        "orbit_uncertainty": "7",
        "minimum_orbit_intersection": ".0244522",
        "jupiter_tisserand_invariant": "4.369",
        "epoch_osculation": "2459000.5",
        "eccentricity": ".3475624808710927",
        "semi_major_axis": "1.548559475874127",
        "inclination": "9.698709300877738",
        "ascending_node_longitude": "3.735206981108385",
        "orbital_period": "703.8664451962316",
        "perihelion_distance": "1.010338302662876",
        "perihelion_argument": "199.4255843926717",
        "aphelion_distance": "2.086780649085378",
        "perihelion_time": "2459235.710438752860",
        "mean_anomaly": "239.6991126243803",
        "mean_motion": ".511460664813529",
        "equinox": "J2000",
        "orbit_class": {
            "orbit_class_type": "APO",
            "orbit_class_description": "Near-Earth asteroid orbits which cross the Earth’s orbit similar to that of 1862 Apollo",
            "orbit_class_range": "a (semi-major axis) > 1.0 AU; q (perihelion) < 1.017 AU"
        }
    },
    "is_sentry_object": false
}